{
    "links": {
        "self": "http://www.neowsapp.com/rest/v1/neo/3766298?api_key=iIulBulltgU6a56xZRHN4H3l9WmuAYTsLGpBGhQ2"
    },
    "id": "3766298",
    "neo_reference_id": "3766298",
    "name": "(2017 AJ3)",
    "designation": "2017 AJ3",
    "nasa_jpl_url": "http://ssd.jpl.nasa.gov/sbdb.cgi?sstr=3766298",
    "absolute_magnitude_h": 24.3,
    "estimated_diameter": {
        "kilometers": {
            "estimated_diameter_min": 0.0366906138,
            "estimated_diameter_max": 0.0820427065
        },
        "meters": {
            "estimated_diameter_min": 36.6906137531,
            "estimated_diameter_max": 82.0427064882
        },
        "miles": {
            "estimated_diameter_min": 0.0227984834,
            "estimated_diameter_max": 0.0509789586
        },
        "feet": {
            "estimated_diameter_min": 120.3760332259,
            "estimated_diameter_max": 269.1689931548
        }
    },
    "is_potentially_hazardous_asteroid": false,
    "close_approach_data": [
        {
            "close_approach_date": "2017-01-08",
            "close_approach_date_full": "2017-Jan-08 04:34",
            "epoch_date_close_approach": 1483850040000,
            "relative_velocity": {
                "kilometers_per_second": "13.7060823335",
                "kilometers_per_hour": "49341.8964004801",
                "miles_per_hour": "30659.1355717317"
            },
            "miss_distance": {
                "astronomical": "0.109432169",
                "lunar": "42.569113741",
                "kilometers": "16370819.39188003",
                "miles": "10172355.471723214"
            },
            "orbiting_body": "Earth"
        }
    ],
    "orbital_data": {
        "orbit_id": "6",
        "orbit_determination_date": "2017-04-06 08:21:13",
        "first_observation_date": "2017-01-03",
        "last_observation_date": "2017-01-19",
        "data_arc_in_days": 16,
        "observations_used": 26,
        "orbit_uncertainty": "8",
        "minimum_orbit_intersection": ".109432",
        "jupiter_tisserand_invariant": "5.042",
        "epoch_osculation": "2457758.5",
        "eccentricity": ".1281880236979378",
        "semi_major_axis": "1.247747641922324",
        "inclination": "26.14128077756046",
        "ascending_node_longitude": "288.7327880527213",
        "orbital_period": "509.0829634496607",
        "perihelion_distance": "1.087801337630539",
        "perihelion_argument": "163.217915439652",
        "aphelion_distance": "1.407693946214109",
        "perihelion_time": "2457744.495103263015",
        "mean_anomaly": "9.903617263383714",
        "mean_motion": ".7071538940540437",
        "equinox": "J2000",
        "orbit_class": {
            "orbit_class_type": "AMO",
            "orbit_class_description": "Near-Earth asteroid orbits similar to that of 1221 Amor",
            "orbit_class_range": "1.017 AU < q (perihelion) < 1.3 AU"
        }
    },
    "is_sentry_object": false
}